     2.100          NAVIGATION                              RINEX VERSION / TYPE
fic2rin                                 08/17/2011 01:03:49 PGM / RUN BY / DATE
                                                            END OF HEADER
30 11  8 16 12  0  0.0  .936584547162D-04 -.147792889038D-11  .000000000000D+00
     .240000000000D+02  .285625000000D+02  .509378360510D-08 -.180941035800D+00
     .158138573170D-05  .117467065575D-01  .335089862347D-05  .515543559837D+04
     .216000000000D+06 -.126659870148D-06  .171560151152D+01  .577419996262D-07
     .955970363546D+00  .311781250000D+03  .156637521427D+01 -.871143429478D-08
     .953611150304D-10  .100000000000D+01  .164900000000D+04  .000000000000D+00
     .240000000000D+01  .630000000000D+02 -.419095158577D-08  .240000000000D+02
     .208806000000D+06  .400000000000D+01
31 11  8 16 12  0  0.0  .127212610096D-03  .568434188608D-11  .000000000000D+00
     .200000000000D+02  .629687500000D+02  .400123809620D-08  .205621247775D+01
     .340119004250D-05  .760430167429D-02  .104270875454D-04  .515371965599D+04
     .216000000000D+06  .111758708954D-06  .780951855037D+00  .186264514923D-08
     .980156143003D+00  .183406250000D+03 -.951619544237D+00 -.768067707389D-08
     .149291932894D-09  .100000000000D+01  .164900000000D+04  .000000000000D+00
     .240000000000D+01  .000000000000D+00 -.130385160446D-07  .200000000000D+02
     .208806000000D+06  .400000000000D+01
32 11  8 16 12  0  0.0 -.311558134854D-03 -.693489710102D-11  .000000000000D+00
     .145000000000D+03  .171562500000D+02  .508878339683D-08  .276716986744D+01
     .745058059692D-06  .121749576647D-01  .312179327011D-05  .515359523201D+04
     .216000000000D+06  .745058059692D-07 -.123772660670D+01  .225380063057D-06
     .953745645506D+00  .311062500000D+03 -.752825727676D+00 -.838070623291D-08
     .960754304987D-10  .100000000000D+01  .164900000000D+04  .000000000000D+00
     .240000000000D+01  .000000000000D+00 -.279396772385D-08  .145000000000D+03
     .208806000000D+06  .400000000000D+01
 9 11  8 16 11 59 44.0  .995472073555D-04  .238742359215D-11  .000000000000D+00
     .180000000000D+02  .469687500000D+02  .396837958465D-08  .134857086358D+01
     .214017927647D-05  .173620416317D-01  .102054327726D-04  .515366522217D+04
     .215984000000D+06 -.160187482834D-06  .751482091548D+00 -.426545739174D-06
     .983920946588D+00  .196375000000D+03  .159493469308D+01 -.778568144774D-08
     .252153360342D-09  .100000000000D+01  .164900000000D+04  .000000000000D+00
     .240000000000D+01  .000000000000D+00 -.558793544769D-08  .180000000000D+02
     .212736000000D+06  .400000000000D+01
 4 11  8 16 11 59 44.0  .203089322895D-03  .110276232590D-10  .000000000000D+00
     .000000000000D+00  .389687500000D+02  .476234122777D-08  .493565715016D+00
     .225007534027D-05  .967780884821D-02  .104904174805D-04  .515369371796D+04
     .215984000000D+06 -.115483999252D-06 -.237200609500D+01  .180676579475D-06
     .938117898776D+00  .166125000000D+03  .748640431696D+00 -.821748514838D-08
     .316441752498D-09  .100000000000D+01  .164900000000D+04  .000000000000D+00
     .240000000000D+01  .000000000000D+00 -.651925802231D-08  .000000000000D+00
     .214986000000D+06  .400000000000D+01
11 11  8 16 11 59 44.0 -.177427195013D-03 -.329691829393D-11  .000000000000D+00
     .220000000000D+02  .718750000000D+01  .574881088962D-08  .222388686540D+01
     .305473804474D-06  .120841948083D-01  .123810023069D-04  .515367725563D+04
     .215984000000D+06 -.298023223877D-07 -.263068063761D+01 -.277534127235D-06
     .888279328537D+00  .993437500000D+02  .955470490290D+00 -.849535386559D-08
     .206437170365D-09  .100000000000D+01  .164900000000D+04  .000000000000D+00
     .240000000000D+01  .000000000000D+00 -.116415321827D-07  .220000000000D+02
     .215016000000D+06  .400000000000D+01
 4 11  8 16 13 59 44.0  .203168950975D-03  .110276232590D-10  .000000000000D+00
     .130000000000D+02  .370937500000D+02  .474091176372D-08  .154352696619D+01
     .200793147087D-05  .967949570622D-02  .116731971502D-04  .515369864082D+04
     .223184000000D+06 -.132247805595D-06 -.237206474046D+01  .111758708954D-07
     .938119623556D+00  .146812500000D+03  .748847159576D+00 -.821141346690D-08
     .209651589973D-09  .100000000000D+01  .164900000000D+04  .000000000000D+00
     .240000000000D+01  .000000000000D+00 -.651925802231D-08  .130000000000D+02
     .216006000000D+06  .400000000000D+01
 9 11  8 16 13 59 44.0  .995644368231D-04  .238742359215D-11  .000000000000D+00
     .190000000000D+02  .438125000000D+02  .387659004696D-08  .239881584186D+01
     .217370688915D-05  .173622349976D-01  .102575868368D-04  .515366318512D+04
     .223184000000D+06  .193715095520D-06  .751428420010D+00 -.150874257088D-06
     .983924214747D+00  .188687500000D+03  .159487184319D+01 -.739352225559D-08
     .179293182566D-09  .100000000000D+01  .164900000000D+04  .000000000000D+00
     .240000000000D+01  .000000000000D+00 -.558793544769D-08  .190000000000D+02
     .216006000000D+06  .400000000000D+01
11 11  8 16 13 59 44.0 -.177450943738D-03 -.329691829393D-11  .000000000000D+00
     .230000000000D+02  .148437500000D+02  .560773358461D-08 -.300915608428D+01
     .700354576111D-06  .120831277454D-01  .120960175991D-04  .515367942810D+04
     .223184000000D+06  .614672899246D-07 -.263074046803D+01 -.875443220139D-07
     .888281256663D+00  .104281250000D+03  .955514010640D+00 -.831998941810D-08
     .151792037033D-09  .100000000000D+01  .164900000000D+04  .000000000000D+00
     .240000000000D+01  .000000000000D+00 -.116415321827D-07  .230000000000D+02
     .216006000000D+06  .400000000000D+01
 1 11  8 16 14  0  0.0 -.733928754926D-05 -.227373675443D-12  .000000000000D+00
     .500000000000D+02  .517500000000D+02  .407695553585D-08  .173197479202D+01
     .269338488579D-05  .255585880950D-03  .114589929581D-04  .516649108505D+04
     .223200000000D+06  .633299350739D-07 -.238174309780D+01  .111758708954D-06
     .960433668089D+00  .156062500000D+03  .218777736148D+01 -.771067832356D-08
     .374658463172D-09  .100000000000D+01  .164900000000D+04  .000000000000D+00
     .485000000000D+01  .630000000000D+02  .791624188423D-08  .500000000000D+02
     .216006000000D+06  .400000000000D+01
 2 11  8 16 14  0  0.0  .351581256837D-03  .170530256582D-11  .000000000000D+00
     .290000000000D+02  .363750000000D+02  .462947855065D-08 -.169662210097D+01
     .191666185856D-05  .104115332942D-01  .111833214760D-04  .515380408669D+04
     .223200000000D+06 -.577419996262D-07 -.238932036684D+01 -.171363353729D-06
     .939050830894D+00  .153468750000D+03 -.295132157978D+01 -.798247535928D-08
     .436803908922D-09  .100000000000D+01  .164900000000D+04  .000000000000D+00
     .240000000000D+01  .000000000000D+00 -.172294676304D-07  .290000000000D+02
     .216006000000D+06  .400000000000D+01
 3 11  8 16 14  0  0.0  .755627173930D-03  .488853402203D-11  .000000000000D+00
     .590000000000D+02 -.774687500000D+02  .523307512144D-08 -.151131248019D+01
    -.395439565182D-05  .146559621207D-01  .696070492268D-05  .515366767693D+04
     .223200000000D+06  .325962901115D-06  .273510806766D+01  .175088644028D-06
     .929621653856D+00  .225531250000D+03  .112046541181D+01 -.836177687300D-08
    -.496092092798D-09  .100000000000D+01  .164900000000D+04  .000000000000D+00
     .240000000000D+01  .000000000000D+00 -.465661287308D-08  .590000000000D+02
     .216006000000D+06  .400000000000D+01
 5 11  8 16 14  0  0.0 -.204738695174D-03 -.545696821064D-11  .000000000000D+00
     .340000000000D+02  .261875000000D+02  .500056543648D-08  .372257796134D+00
     .145286321640D-05  .231274485122D-02  .380910933018D-05  .515372714615D+04
     .223200000000D+06  .130385160446D-07 -.132685016985D+01  .931322574615D-08
     .952998942860D+00  .300718750000D+03  .148942423844D+00 -.848606776450D-08
     .208937274505D-09  .100000000000D+01  .164900000000D+04  .000000000000D+00
     .240000000000D+01  .000000000000D+00 -.102445483208D-07  .340000000000D+02
     .216006000000D+06  .400000000000D+01
 6 11  8 16 14  0  0.0 -.951201654971D-04  .102318153949D-10  .000000000000D+00
     .490000000000D+02 -.839062500000D+02  .508414034628D-08  .494984646074D+00
    -.463426113129D-05  .672295817640D-02  .781007111073D-05  .515363544083D+04
     .223200000000D+06  .521540641785D-07  .280938483802D+01 -.894069671631D-07
     .936737512683D+00  .217531250000D+03 -.712620331086D+00 -.844713757147D-08
    -.522521765129D-09  .100000000000D+01  .164900000000D+04  .000000000000D+00
     .240000000000D+01  .000000000000D+00 -.465661287308D-08  .490000000000D+02
     .216006000000D+06  .400000000000D+01
 7 11  8 16 14  0  0.0  .223140232265D-04  .170530256582D-11  .000000000000D+00
     .310000000000D+02  .623437500000D+02  .413302930012D-08  .312252851814D+01
     .330992043018D-05  .486116099637D-02  .112354755402D-04  .515364798546D+04
     .223200000000D+06 -.726431608200D-07  .779267161502D+00 -.745058059692D-08
     .975027649610D+00  .171843750000D+03 -.310911886243D+01 -.772710757933D-08
     .351086052715D-09  .100000000000D+01  .164900000000D+04  .000000000000D+00
     .240000000000D+01  .000000000000D+00 -.107102096081D-07  .310000000000D+02
     .216006000000D+06  .400000000000D+01
 8 11  8 16 14  0  0.0  .886293128133D-05  .113686837722D-12  .000000000000D+00
     .910000000000D+02  .660312500000D+02  .368229623956D-08  .263695030951D+01
     .347755849361D-05  .119186622323D-01  .109057873487D-04  .515358036232D+04
     .223200000000D+06 -.249594449997D-06  .856478307074D+00  .428408384323D-07
     .996780543636D+00  .189437500000D+03 -.305800922997D+01 -.748209737367D-08
     .409659921123D-09  .100000000000D+01  .164900000000D+04  .000000000000D+00
     .485000000000D+01  .000000000000D+00 -.419095158577D-08  .910000000000D+02
     .216006000000D+06  .400000000000D+01
